{
 "type": "FeatureCollection",
 "name": "boats",
 "crs": {
  "type": "name",
  "properties": {
   "name": "urn:ogc:def:crs:OGC:1.3:CRS84"
  }
 },
 "features": [
  {
   "type": "Feature",
   "properties": {
    "source": "boats",
    "original_id": 1
   },
   "geometry": {
    "type": "MultiPolygon",
    "coordinates": [
     [
      [
       [
        -122.31876838155765,
        37.70854593874675
       ],
       [
        -122.31827911714994,
        37.70874671354039
       ],
       [
        -122.31795139256063,
        37.70886658057311
       ],
       [
        -122.31767908574643,
        37.70897079857263
       ],
       [
        -122.31749751694075,
        37.70904360354939
       ],
       [
        -122.31736153693414,
        37.70907675010741
       ],
       [
        -122.31724840635006,
        37.709084079463246
       ],
       [
        -122.31714543518042,
        37.70907949092166
       ],
       [
        -122.3170585091752,
        37.70896920167184
       ],
       [
        -122.31706382701879,
        37.70893729479607
       ],
       [
        -122.31714998056027,
        37.70885794959979
       ],
       [
        -122.3172510616691,
        37.708794659621894
       ],
       [
        -122.31739479803173,
        37.70873760483368
       ],
       [
        -122.3184663043969,
        37.70833460193956
       ],
       [
        -122.31869050753616,
        37.70827002624466
       ],
       [
        -122.31879877647864,
        37.708244702461805
       ],
       [
        -122.31891196045804,
        37.708231383603874
       ],
       [
        -122.31900207655762,
        37.708267834035944
       ],
       [
        -122.31903424408704,
        37.708321914672396
       ],
       [
        -122.31901596350097,
        37.708397661091716
       ],
       [
        -122.31896019832098,
        37.70845123383401
       ],
       [
        -122.31887188190572,
        37.708492641873136
       ],
       [
        -122.31887188190572,
        37.708492641873136
       ],
       [
        -122.31876838155765,
        37.70854593874675
       ]
      ]
     ]
    ]
   }
  },
  {
   "type": "Feature",
   "properties": {
    "source": "boats",
    "original_id": 2
   },
   "geometry": {
    "type": "MultiPolygon",
    "coordinates": [
     [
      [
       [
        -122.34288482537796,
        37.751533570321854
       ],
       [
        -122.34268552188236,
        37.751514183859754
       ],
       [
        -122.34260347717039,
        37.75124873755224
       ],
       [
        -122.34267845997782,
        37.75101157968204
       ],
       [
        -122.343062465335,
        37.74966441017389
       ],
       [
        -122.34312488771215,
        37.74954597001417
       ],
       [
        -122.34319846720226,
        37.74946718802115
       ],
       [
        -122.34328355380998,
        37.74938847009858
       ],
       [
        -122.34337204537964,
        37.74935850465582
       ],
       [
        -122.34344489784547,
        37.74936195635943
       ],
       [
        -122.3435169161908,
        37.749459824669266
       ],
       [
        -122.34354242120358,
        37.749612259141614
       ],
       [
        -122.34354509999612,
        37.74974324553317
       ],
       [
        -122.34350139958465,
        37.74991356961617
       ],
       [
        -122.34324000039724,
        37.750844142706825
       ],
       [
        -122.34316442723774,
        37.75114830630054
       ],
       [
        -122.34311340340119,
        37.75127899336419
       ],
       [
        -122.34302026568665,
        37.75140030811204
       ],
       [
        -122.34302026568665,
        37.75140030811204
       ],
       [
        -122.34288482537796,
        37.751533570321854
       ]
      ]
     ]
    ]
   }
  },
  {
   "type": "Feature",
   "properties": {
    "source": "moreboats",
    "original_id": 1
   },
   "geometry": {
    "type": "MultiPolygon",
    "coordinates": [
     [
      [
       [
        -122.33484740270812,
        37.739926813360945
       ],
       [
        -122.33470922983214,
        37.73967237997953
       ],
       [
        -122.33531153493969,
        37.739449108829305
       ],
       [
        -122.3358385870177,
        37.73928117839518
       ],
       [
        -122.33630197065193,
        37.7391398715376
       ],
       [
        -122.33643127893495,
        37.739119012020986
       ],
       [
        -122.3365808132672,
        37.73911625582227
       ],
       [
        -122.33666656926198,
        37.7391527176937
       ],
       [
        -122.33670456379086,
        37.73921049828762
       ],
       [
        -122.33667683576924,
        37.739271506955156
       ],
       [
        -122.33660603695076,
        37.7393358711386
       ],
       [
        -122.33643537679029,
        37.73942126068418
       ],
       [
        -122.33556064009296,
        37.739711362747435
       ],
       [
        -122.33517214814094,
        37.73983689844116
       ],
       [
        -122.33499268185837,
        37.73989345282534
       ],
       [
        -122.33484740270812,
        37.739926813360945
       ]
      ]
     ]
    ]
   }
  },
  {
   "type": "Feature",
   "properties": {
    "source": "moreboats",
    "original_id": 2
   },
   "geometry": {
    "type": "MultiPolygon",
    "coordinates": [
     [
      [
       [
        -122.3302615619352,
        37.75079777759222
       ],
       [
        -122.33002853152993,
        37.75068287714606
       ],
       [
        -122.3300257927837,
        37.75062607357233
       ],
       [
        -122.33007532195487,
        37.750541173103485
       ],
       [
        -122.33015752129724,
        37.75043838938334
       ],
       [
        -122.33058453563893,
        37.74995037359389
       ],
       [
        -122.33090979657987,
        37.749570192077634
       ],
       [
        -122.33103469425888,
        37.74941860591146
       ],
       [
        -122.33110983201594,
        37.74937773198492
       ],
       [
        -122.33120428799897,
        37.74935761782178
       ],
       [
        -122.33129528418974,
        37.74936071541617
       ],
       [
        -122.33133389766499,
        37.74940481614408
       ],
       [
        -122.33135913678584,
        37.749490141363474
       ],
       [
        -122.33135198506187,
        37.749562376451955
       ],
       [
        -122.33127942432479,
        37.74967812208666
       ],
       [
        -122.33119720414794,
        37.7497834877669
       ],
       [
        -122.33089147132902,
        37.75016119965773
       ],
       [
        -122.33069122394711,
        37.75037688959925
       ],
       [
        -122.33053344440697,
        37.75056958896555
       ],
       [
        -122.33041184101496,
        37.75071603072967
       ],
       [
        -122.33030061753259,
        37.75079283697526
       ],
       [
        -122.3302615619352,
        37.75079777759222
       ]
      ]
     ]
    ]
   }
  },
  {
   "type": "Feature",
   "properties": {
    "source": "moreboats",
    "original_id": 3
   },
   "geometry": {
    "type": "MultiPolygon",
    "coordinates": [
     [
      [
       [
        -122.3445438197228,
        37.740074790491526
       ],
       [
        -122.34443963195135,
        37.73997580441818
       ],
       [
        -122.34449152964754,
        37.73989480058905
       ],
       [
        -122.34457060966888,
        37.73978613731006
       ],
       [
        -122.34461131727792,
        37.73975213525685
       ],
       [
        -122.34471710785779,
        37.73966929169344
       ],
       [
        -122.34497728823712,
        37.73949103870487
       ],
       [
        -122.3451480474233,
        37.739372188085355
       ],
       [
        -122.34536473089845,
        37.73923861734943
       ],
       [
        -122.34564920798647,
        37.73905407996309
       ],
       [
        -122.34584125109501,
        37.73896529633585
       ],
       [
        -122.3459411812648,
        37.738935901022366
       ],
       [
        -122.34606797300083,
        37.738915211753266
       ],
       [
        -122.34612439000092,
        37.738932638937946
       ],
       [
        -122.3461262745894,
        37.73902463824816
       ],
       [
        -122.34607413465186,
        37.739133452057615
       ],
       [
        -122.34598450855468,
        37.73921638654581
       ],
       [
        -122.34572139305159,
        37.73942243606828
       ],
       [
        -122.345393513844,
        37.73964096098957
       ],
       [
        -122.34533649361919,
        37.7396919869177
       ],
       [
        -122.34519297272814,
        37.7397767607173
       ],
       [
        -122.34505482011443,
        37.73986370344381
       ],
       [
        -122.34489494767539,
        37.73996977876964
       ],
       [
        -122.34476519611071,
        37.740020400164454
       ],
       [
        -122.34460317615724,
        37.740064424171585
       ],
       [
        -122.3445438197228,
        37.740074790491526
       ]
      ]
     ]
    ]
   }
  },
  {
   "type": "Feature",
   "properties": {
    "source": "moreboats",
    "original_id": 5
   },
   "geometry": {
    "type": "MultiPolygon",
    "coordinates": [
     [
      [
       [
        -122.3389219497449,
        37.721741552316715
       ],
       [
        -122.33885639686672,
        37.721596379155145
       ],
       [
        -122.33890541513067,
        37.72155079895576
       ],
       [
        -122.33902454708057,
        37.721479064179455
       ],
       [
        -122.33917696996376,
        37.72142199645132
       ],
       [
        -122.33962467282463,
        37.721301420439495
       ],
       [
        -122.34007857902799,
        37.72116639688737
       ],
       [
        -122.34048062109916,
        37.72105521570608
       ],
       [
        -122.34058721307846,
        37.721026850855374
       ],
       [
        -122.34077838120929,
        37.7210544676779
       ],
       [
        -122.34084477142365,
        37.72110552085373
       ],
       [
        -122.34083478015259,
        37.72120441546624
       ],
       [
        -122.34073984869492,
        37.721288354550225
       ],
       [
        -122.33999348678616,
        37.72151104046025
       ],
       [
        -122.33942684442023,
        37.721681633413816
       ],
       [
        -122.3391102738509,
        37.72174743506543
       ],
       [
        -122.3389219497449,
        37.721741552316715
       ]
      ]
     ]
    ]
   }
  },
  {
   "type": "Feature",
   "properties": {
    "source": "evemore",
    "original_id": 1
   },
   "geometry": {
    "type": "MultiPolygon",
    "coordinates": [
     [
      [
       [
        -122.33484740270812,
        37.739926813360945
       ],
       [
        -122.33470922983214,
        37.73967237997953
       ],
       [
        -122.33531153493969,
        37.739449108829305
       ],
       [
        -122.3358385870177,
        37.73928117839518
       ],
       [
        -122.33630197065193,
        37.7391398715376
       ],
       [
        -122.33643127893495,
        37.739119012020986
       ],
       [
        -122.3365808132672,
        37.73911625582227
       ],
       [
        -122.33666656926198,
        37.7391527176937
       ],
       [
        -122.33670456379086,
        37.73921049828762
       ],
       [
        -122.33667683576924,
        37.739271506955156
       ],
       [
        -122.33660603695076,
        37.7393358711386
       ],
       [
        -122.33643537679029,
        37.73942126068418
       ],
       [
        -122.33556064009296,
        37.739711362747435
       ],
       [
        -122.33517214814094,
        37.73983689844116
       ],
       [
        -122.33499268185837,
        37.73989345282534
       ],
       [
        -122.33484740270812,
        37.739926813360945
       ]
      ]
     ]
    ]
   }
  },
  {
   "type": "Feature",
   "properties": {
    "source": "evemore",
    "original_id": 2
   },
   "geometry": {
    "type": "MultiPolygon",
    "coordinates": [
     [
      [
       [
        -122.3302615619352,
        37.75079777759222
       ],
       [
        -122.33002853152993,
        37.75068287714606
       ],
       [
        -122.3300257927837,
        37.75062607357233
       ],
       [
        -122.33007532195487,
        37.750541173103485
       ],
       [
        -122.33015752129724,
        37.75043838938334
       ],
       [
        -122.33058453563893,
        37.74995037359389
       ],
       [
        -122.33090979657987,
        37.749570192077634
       ],
       [
        -122.33103469425888,
        37.74941860591146
       ],
       [
        -122.33110983201594,
        37.74937773198492
       ],
       [
        -122.33120428799897,
        37.74935761782178
       ],
       [
        -122.33129528418974,
        37.74936071541617
       ],
       [
        -122.33133389766499,
        37.74940481614408
       ],
       [
        -122.33135913678584,
        37.749490141363474
       ],
       [
        -122.33135198506187,
        37.749562376451955
       ],
       [
        -122.33127942432479,
        37.74967812208666
       ],
       [
        -122.33119720414794,
        37.7497834877669
       ],
       [
        -122.33089147132902,
        37.75016119965773
       ],
       [
        -122.33069122394711,
        37.75037688959925
       ],
       [
        -122.33053344440697,
        37.75056958896555
       ],
       [
        -122.33041184101496,
        37.75071603072967
       ],
       [
        -122.33030061753259,
        37.75079283697526
       ],
       [
        -122.3302615619352,
        37.75079777759222
       ]
      ]
     ]
    ]
   }
  },
  {
   "type": "Feature",
   "properties": {
    "source": "evemore",
    "original_id": 3
   },
   "geometry": {
    "type": "MultiPolygon",
    "coordinates": [
     [
      [
       [
        -122.3445438197228,
        37.740074790491526
       ],
       [
        -122.34443963195135,
        37.73997580441818
       ],
       [
        -122.34449152964754,
        37.73989480058905
       ],
       [
        -122.34457060966888,
        37.73978613731006
       ],
       [
        -122.34461131727792,
        37.73975213525685
       ],
       [
        -122.34471710785779,
        37.73966929169344
       ],
       [
        -122.34497728823712,
        37.73949103870487
       ],
       [
        -122.3451480474233,
        37.739372188085355
       ],
       [
        -122.34536473089845,
        37.73923861734943
       ],
       [
        -122.34564920798647,
        37.73905407996309
       ],
       [
        -122.34584125109501,
        37.73896529633585
       ],
       [
        -122.3459411812648,
        37.738935901022366
       ],
       [
        -122.34606797300083,
        37.738915211753266
       ],
       [
        -122.34612439000092,
        37.738932638937946
       ],
       [
        -122.3461262745894,
        37.73902463824816
       ],
       [
        -122.34607413465186,
        37.739133452057615
       ],
       [
        -122.34598450855468,
        37.73921638654581
       ],
       [
        -122.34572139305159,
        37.73942243606828
       ],
       [
        -122.345393513844,
        37.73964096098957
       ],
       [
        -122.34533649361919,
        37.7396919869177
       ],
       [
        -122.34519297272814,
        37.7397767607173
       ],
       [
        -122.34505482011443,
        37.73986370344381
       ],
       [
        -122.34489494767539,
        37.73996977876964
       ],
       [
        -122.34476519611071,
        37.740020400164454
       ],
       [
        -122.34460317615724,
        37.740064424171585
       ],
       [
        -122.3445438197228,
        37.740074790491526
       ]
      ]
     ]
    ]
   }
  },
  {
   "type": "Feature",
   "properties": {
    "source": "evemore",
    "original_id": 5
   },
   "geometry": {
    "type": "MultiPolygon",
    "coordinates": [
     [
      [
       [
        -122.3389219497449,
        37.721741552316715
       ],
       [
        -122.33885639686672,
        37.721596379155145
       ],
       [
        -122.33890541513067,
        37.72155079895576
       ],
       [
        -122.33902454708057,
        37.721479064179455
       ],
       [
        -122.33917696996376,
        37.72142199645132
       ],
       [
        -122.33962467282463,
        37.721301420439495
       ],
       [
        -122.34007857902799,
        37.72116639688737
       ],
       [
        -122.34048062109916,
        37.72105521570608
       ],
       [
        -122.34058721307846,
        37.721026850855374
       ],
       [
        -122.34077838120929,
        37.7210544676779
       ],
       [
        -122.34084477142365,
        37.72110552085373
       ],
       [
        -122.34083478015259,
        37.72120441546624
       ],
       [
        -122.34073984869492,
        37.721288354550225
       ],
       [
        -122.33999348678616,
        37.72151104046025
       ],
       [
        -122.33942684442023,
        37.721681633413816
       ],
       [
        -122.3391102738509,
        37.72174743506543
       ],
       [
        -122.3389219497449,
        37.721741552316715
       ]
      ]
     ]
    ]
   }
  },
  {
   "type": "Feature",
   "properties": {
    "source": "evemore",
    "original_id": 10
   },
   "geometry": {
    "type": "MultiPolygon",
    "coordinates": [
     [
      [
       [
        -122.32386428958596,
        37.72747790765816
       ],
       [
        -122.32382356521454,
        37.727509789758635
       ],
       [
        -122.32375819199828,
        37.72758435136461
       ],
       [
        -122.32365810817953,
        37.727622316011114
       ],
       [
        -122.32353649922193,
        37.72765587496194
       ],
       [
        -122.32268919644014,
        37.72775163887493
       ],
       [
        -122.32214142429723,
        37.72781272167688
       ],
       [
        -122.32201733356493,
        37.7278227132836
       ],
       [
        -122.3219015830951,
        37.72780491914382
       ],
       [
        -122.32181276817784,
        37.72778942090097
       ],
       [
        -122.32179425111,
        37.727750775550206
       ],
       [
        -122.32177821478284,
        37.727735695969876
       ],
       [
        -122.3217678428186,
        37.727690674339414
       ],
       [
        -122.32178415248467,
        37.727675780856
       ],
       [
        -122.3217764369705,
        37.72763505660031
       ],
       [
        -122.32183878481104,
        37.72759687647284
       ],
       [
        -122.32192539203163,
        37.7275588358566
       ],
       [
        -122.32201994901469,
        37.72753582821724
       ],
       [
        -122.32208489455859,
        37.72750836812655
       ],
       [
        -122.32220626975321,
        37.727500501878225
       ],
       [
        -122.32235190434854,
        37.72749277496178
       ],
       [
        -122.32233631666864,
        37.727428453984395
       ],
       [
        -122.32234979411504,
        37.72742853146008
       ],
       [
        -122.32239239524523,
        37.727486584578486
       ],
       [
        -122.32247337701894,
        37.72747420376997
       ],
       [
        -122.32251103587745,
        37.72748298438883
       ],
       [
        -122.32264868143909,
        37.727464505962544
       ],
       [
        -122.32264100447112,
        37.72741949989022
       ],
       [
        -122.322641101972,
        37.727408795221685
       ],
       [
        -122.32266809585825,
        37.72740466823435
       ],
       [
        -122.32269997375792,
        37.72745623649162
       ],
       [
        -122.32295903321995,
        37.727425608950675
       ],
       [
        -122.32294055462444,
        37.72738268190501
       ],
       [
        -122.32295416850219,
        37.727367772774535
       ],
       [
        -122.32297836941778,
        37.72737433490393
       ],
       [
        -122.32301030598988,
        37.72741948027791
       ],
       [
        -122.32325586828198,
        37.727390915615814
       ],
       [
        -122.32324807405689,
        37.72735875518299
       ],
       [
        -122.32325621896597,
        37.727352378803985
       ],
       [
        -122.32328842844,
        37.72736755102837
       ],
       [
        -122.32330175002899,
        37.727384755867185
       ],
       [
        -122.32349603941799,
        37.72736231950283
       ],
       [
        -122.32362550070887,
        37.72735449819522
       ],
       [
        -122.323703533555,
        37.7273699332165
       ],
       [
        -122.32377875414132,
        37.72739819832941
       ],
       [
        -122.323808093055,
        37.727432623358474
       ],
       [
        -122.32387788383328,
        37.72746513935387
       ],
       [
        -122.32386428958596,
        37.72747790765816
       ]
      ]
     ]
    ]
   }
  },
  {
   "type": "Feature",
   "properties": {
    "source": "evemore",
    "original_id": 11
   },
   "geometry": {
    "type": "MultiPolygon",
    "coordinates": [
     [
      [
       [
        -122.32351108666792,
        37.7276528648858
       ],
       [
        -122.32212722645805,
        37.72781244000862
       ],
       [
        -122.3219899356711,
        37.727819723933294
       ],
       [
        -122.32181745654418,
        37.727784419490376
       ],
       [
        -122.32179246930666,
        37.72773785322151
       ],
       [
        -122.32177725978205,
        37.72773372897626
       ],
       [
        -122.32177267464917,
        37.72767920660094
       ],
       [
        -122.32178797619342,
        37.72767323952516
       ],
       [
        -122.32178329902428,
        37.72762880847133
       ],
       [
        -122.32185220191458,
        37.72759691094654
       ],
       [
        -122.32195165255669,
        37.727559133980954
       ],
       [
        -122.32202300436184,
        37.72753734229264
       ],
       [
        -122.32207660558039,
        37.72751141174144
       ],
       [
        -122.32211208827582,
        37.72752170764174
       ],
       [
        -122.32235374541567,
        37.72749483986062
       ],
       [
        -122.32233910603273,
        37.72742814948467
       ],
       [
        -122.32235190321634,
        37.727418131197794
       ],
       [
        -122.32240471349625,
        37.727478985874654
       ],
       [
        -122.32251151104951,
        37.7274715262196
       ],
       [
        -122.32265137896395,
        37.727460219751535
       ],
       [
        -122.32264161919841,
        37.72741575952388
       ],
       [
        -122.3226519120594,
        37.727401690073556
       ],
       [
        -122.32270483286244,
        37.72745043502981
       ],
       [
        -122.3229591948055,
        37.72742363899976
       ],
       [
        -122.32294685706626,
        37.727383200731104
       ],
       [
        -122.32294956348134,
        37.72736505094124
       ],
       [
        -122.32297501067053,
        37.727361160350846
       ],
       [
        -122.32301270375761,
        37.72740779934299
       ],
       [
        -122.32325935048884,
        37.72739105020867
       ],
       [
        -122.32324697585823,
        37.72735464849977
       ],
       [
        -122.32327245976069,
        37.72734672131489
       ],
       [
        -122.3233128226263,
        37.72737924694485
       ],
       [
        -122.32350106190331,
        37.72735812527153
       ],
       [
        -122.32365860664764,
        37.727359029270644
       ],
       [
        -122.3237828058398,
        37.727394054081856
       ],
       [
        -122.32381552746554,
        37.72742855407795
       ],
       [
        -122.32388885084222,
        37.72746934205191
       ],
       [
        -122.3238325440691,
        37.72751342324556
       ],
       [
        -122.32375811952318,
        37.727593731147834
       ],
       [
        -122.32360779358635,
        37.72763727284954
       ],
       [
        -122.32356452224015,
        37.72764509803986
       ],
       [
        -122.32351108666792,
        37.7276528648858
       ]
      ]
     ]
    ]
   }
  },
  {
   "type": "Feature",
   "properties": {
    "source": "evemore",
    "original_id": 11
   },
   "geometry": {
    "type": "MultiPolygon",
    "coordinates": [
     [
      [
       [
        -122.32114594283429,
        37.7179695858528
       ],
       [
        -122.32110985766428,
        37.71804494675325
       ],
       [
        -122.32102303551366,
        37.71810419874215
       ],
       [
        -122.32094988762145,
        37.71811959414419
       ],
       [
        -122.32019407250971,
        37.7182734053323
       ],
       [
        -122.32019407250971,
        37.7182734053323
       ],
       [
        -122.31977422119658,
        37.71834590595699
       ],
       [
        -122.31914771993347,
        37.71847825966839
       ],
       [
        -122.31889925530294,
        37.718526772713645
       ],
       [
        -122.31862330330102,
        37.71852517813341
       ],
       [
        -122.31855522125745,
        37.71833054148016
       ],
       [
        -122.31870615951992,
        37.71825094167591
       ],
       [
        -122.3188077882832,
        37.7182154552085
       ],
       [
        -122.31994505854107,
        37.7180000287449
       ],
       [
        -122.32036498378801,
        37.7179192032178
       ],
       [
        -122.32072193221546,
        37.717849112957545
       ],
       [
        -122.32086524789247,
        37.71783883901636
       ],
       [
        -122.32103645714166,
        37.71783427535223
       ],
       [
        -122.32113712207118,
        37.71790422761931
       ],
       [
        -122.32114594283429,
        37.7179695858528
       ]
      ]
     ]
    ]
   }
  }
 ]
}